[{"OBJECT_NAME":"CELESTIS-02 & TAURUS R/B","OBJECT_ID":"1998-007D","EPOCH":"2026-03-02T18:54:24.574752","MEAN_MOTION":14.22451006,"ECCENTRICITY":0.0063125,"INCLINATION":108.0093,"RA_OF_ASC_NODE":117.5238,"ARG_OF_PERICENTER":313.5841,"MEAN_ANOMALY":146.4951,"EPHEMERIS_TYPE":0,"CLASSIFICATION_TYPE":"U","NORAD_CAT_ID":25160,"ELEMENT_SET_NO":999,"REV_AT_EPOCH":45538,"BSTAR":7.1006e-5,"MEAN_MOTION_DOT":3.2e-7,"MEAN_MOTION_DDOT":0}]
