CELESTIS-02 & TAURUS R/B
1 25160U 98007D   26061.78778443  .00000032  00000+0  71006-4 0  9993
2 25160 108.0093 117.5238 0063125 313.5841 146.4951 14.22451006455386
